start=new Date('2022-09-08T00:00:00.000Z').valueOf();
sats=[{"INCLINATION":"53.2173","OBJECT_ID":"2022-101D","BSTAR":"-0.01233900000000","OBJECT_TYPE":"PAYLOAD","TLE_LINE1":"1 53530U 22101D   22250.91667824 -.01115848  00000-0 -12339-1 0  9995","FILE":"3562380","REF_FRAME":"TEME","MEAN_ANOMALY":"48.7886","MEAN_ELEMENT_THEORY":"SGP4","EPOCH":"2022-09-07T22:00:00.999936","CENTER_NAME":"EARTH","MEAN_MOTION":"15.64907606","ECCENTRICITY":"0.00014080","REV_AT_EPOCH":"303","TIME_SYSTEM":"UTC","SEMIMAJOR_AXIS":"6751.641","RA_OF_ASC_NODE":"60.1726","OBJECT_NAME":"STARLINK-4482","EPHEMERIS_TYPE":"0","ARG_OF_PERICENTER":"44.7762","APOAPSIS":"374.457","COUNTRY_CODE":"US","ELEMENT_SET_NO":"999","PERIOD":"92.018","SITE":"AFETR","MEAN_MOTION_DDOT":"0.0000000000000","NORAD_CAT_ID":"53530","PERIAPSIS":"372.556","GP_ID":"211972381","MEAN_MOTION_DOT":"-0.01115848","CLASSIFICATION_TYPE":"U","DECAY_DATE":null,"TLE_LINE2":"2 53530  53.2173  60.1726 0001408  44.7762  48.7886 15.64907606  3035","RCS_SIZE":"LARGE","LAUNCH_DATE":"2022-08-19"},{"MEAN_MOTION_DOT":"-0.01115873","GP_ID":"211972254","CLASSIFICATION_TYPE":"U","DECAY_DATE":null,"TLE_LINE2":"2 53531  53.2173  60.1692 0001378  46.4094  46.4717 15.64900406  3030","RCS_SIZE":"LARGE","LAUNCH_DATE":"2022-08-19","PERIOD":"92.019","SITE":"AFETR","COUNTRY_CODE":"US","APOAPSIS":"374.458","ELEMENT_SET_NO":"999","NORAD_CAT_ID":"53531","PERIAPSIS":"372.597","MEAN_MOTION_DDOT":"0.0000000000000","EPHEMERIS_TYPE":"0","ARG_OF_PERICENTER":"46.4094","ECCENTRICITY":"0.00013780","MEAN_MOTION":"15.64900406","REV_AT_EPOCH":"303","TIME_SYSTEM":"UTC","OBJECT_NAME":"STARLINK-4487","RA_OF_ASC_NODE":"60.1692","SEMIMAJOR_AXIS":"6751.662","REF_FRAME":"TEME","MEAN_ANOMALY":"46.4717","MEAN_ELEMENT_THEORY":"SGP4","CENTER_NAME":"EARTH","EPOCH":"2022-09-07T22:00:00.999936","TLE_LINE1":"1 53531U 22101E   22250.91667824 -.01115873  00000-0 -12343-1 0  9999","FILE":"3562380","OBJECT_TYPE":"PAYLOAD","OBJECT_ID":"2022-101E","INCLINATION":"53.2173","BSTAR":"-0.01234300000000"},{"MEAN_MOTION_DDOT":"0.0000000000000","NORAD_CAT_ID":"53532","PERIAPSIS":"372.578","APOAPSIS":"374.382","COUNTRY_CODE":"US","ELEMENT_SET_NO":"999","PERIOD":"92.018","SITE":"AFETR","DECAY_DATE":null,"TLE_LINE2":"2 53532  53.2174  60.2174 0001336  49.1658  45.0801 15.64916735  3039","RCS_SIZE":"LARGE","LAUNCH_DATE":"2022-08-19","GP_ID":"211972382","MEAN_MOTION_DOT":"-0.01115866","CLASSIFICATION_TYPE":"U","SEMIMAJOR_AXIS":"6751.615","RA_OF_ASC_NODE":"60.2174","OBJECT_NAME":"STARLINK-4483","MEAN_MOTION":"15.64916735","ECCENTRICITY":"0.00013360","REV_AT_EPOCH":"303","TIME_SYSTEM":"UTC","ARG_OF_PERICENTER":"49.1658","EPHEMERIS_TYPE":"0","TLE_LINE1":"1 53532U 22101F   22250.91667824 -.01115866  00000-0 -12335-1 0  9993","FILE":"3562380","MEAN_ELEMENT_THEORY":"SGP4","CENTER_NAME":"EARTH","EPOCH":"2022-09-07T22:00:00.999936","REF_FRAME":"TEME","MEAN_ANOMALY":"45.0801","BSTAR":"-0.01233500000000","INCLINATION":"53.2174","OBJECT_ID":"2022-101F","OBJECT_TYPE":"PAYLOAD"},{"TLE_LINE1":"1 53533U 22101G   22250.91667824 -.01115827  00000-0 -12331-1 0  9997","FILE":"3562380","MEAN_ELEMENT_THEORY":"SGP4","EPOCH":"2022-09-07T22:00:00.999936","CENTER_NAME":"EARTH","REF_FRAME":"TEME","MEAN_ANOMALY":"44.6637","BSTAR":"-0.01233100000000","INCLINATION":"53.2174","OBJECT_ID":"2022-101G","OBJECT_TYPE":"PAYLOAD","MEAN_MOTION_DDOT":"0.0000000000000","NORAD_CAT_ID":"53533","PERIAPSIS":"372.568","COUNTRY_CODE":"US","ELEMENT_SET_NO":"999","APOAPSIS":"374.351","PERIOD":"92.017","SITE":"AFETR","RCS_SIZE":"LARGE","TLE_LINE2":"2 53533  53.2174  60.2196 0001321  50.2658  44.6637 15.64923981  3034","DECAY_DATE":null,"LAUNCH_DATE":"2022-08-19","GP_ID":"211972380","MEAN_MOTION_DOT":"-0.01115827","CLASSIFICATION_TYPE":"U","RA_OF_ASC_NODE":"60.2196","SEMIMAJOR_AXIS":"6751.594","OBJECT_NAME":"STARLINK-4493","ECCENTRICITY":"0.00013210","MEAN_MOTION":"15.64923981","TIME_SYSTEM":"UTC","REV_AT_EPOCH":"303","ARG_OF_PERICENTER":"50.2658","EPHEMERIS_TYPE":"0"},{"EPOCH":"2022-09-07T22:00:00.999936","CENTER_NAME":"EARTH","MEAN_ELEMENT_THEORY":"SGP4","MEAN_ANOMALY":"59.4582","REF_FRAME":"TEME","FILE":"3562380","TLE_LINE1":"1 53534U 22101H   22250.91667824 -.01115436  00000-0 -12311-1 0  9992","OBJECT_TYPE":"PAYLOAD","BSTAR":"-0.01231100000000","INCLINATION":"53.2174","OBJECT_ID":"2022-101H","LAUNCH_DATE":"2022-08-19","TLE_LINE2":"2 53534  53.2174  60.2325 0001558  38.2048  59.4582 15.64952789  3031","DECAY_DATE":null,"RCS_SIZE":"LARGE","CLASSIFICATION_TYPE":"U","GP_ID":"211972379","MEAN_MOTION_DOT":"-0.01115436","MEAN_MOTION_DDOT":"0.0000000000000","PERIAPSIS":"372.325","NORAD_CAT_ID":"53534","APOAPSIS":"374.428","COUNTRY_CODE":"US","ELEMENT_SET_NO":"999","SITE":"AFETR","PERIOD":"92.016","ARG_OF_PERICENTER":"38.2048","EPHEMERIS_TYPE":"0","RA_OF_ASC_NODE":"60.2325","SEMIMAJOR_AXIS":"6751.512","OBJECT_NAME":"STARLINK-4488","TIME_SYSTEM":"UTC","REV_AT_EPOCH":"303","ECCENTRICITY":"0.00015580","MEAN_MOTION":"15.64952789"},{"CENTER_NAME":"EARTH","EPOCH":"2022-09-07T22:00:00.999936","MEAN_ELEMENT_THEORY":"SGP4","MEAN_ANOMALY":"47.0778","REF_FRAME":"TEME","FILE":"3562380","TLE_LINE1":"1 53535U 22101J   22250.91667824 -.01115760  00000-0 -12323-1 0  9996","OBJECT_TYPE":"PAYLOAD","BSTAR":"-0.01232300000000","INCLINATION":"53.2174","OBJECT_ID":"2022-101J","LAUNCH_DATE":"2022-08-19","TLE_LINE2":"2 53535  53.2174  60.2240 0001339  49.2187  47.0778 15.64938370  3031","RCS_SIZE":"LARGE","DECAY_DATE":null,"CLASSIFICATION_TYPE":"U","MEAN_MOTION_DOT":"-0.01115760","GP_ID":"211972252","MEAN_MOTION_DDOT":"0.0000000000000","PERIAPSIS":"372.514","NORAD_CAT_ID":"53535","COUNTRY_CODE":"US","ELEMENT_SET_NO":"999","APOAPSIS":"374.322","PERIOD":"92.016","SITE":"AFETR","ARG_OF_PERICENTER":"49.2187","EPHEMERIS_TYPE":"0","SEMIMAJOR_AXIS":"6751.553","RA_OF_ASC_NODE":"60.2240","OBJECT_NAME":"STARLINK-4138","REV_AT_EPOCH":"303","TIME_SYSTEM":"UTC","MEAN_MOTION":"15.64938370","ECCENTRICITY":"0.00013390"},{"FILE":"3562381","TLE_LINE1":"1 53536U 22101K   22250.91667824  .00018087  00000-0  13271-3 0  9993","MEAN_ANOMALY":"109.0399","REF_FRAME":"TEME","EPOCH":"2022-09-07T22:00:00.999936","CENTER_NAME":"EARTH","MEAN_ELEMENT_THEORY":"SGP4","INCLINATION":"53.2159","OBJECT_ID":"2022-101K","BSTAR":"0.00013271000000","OBJECT_TYPE":"PAYLOAD","COUNTRY_CODE":"US","APOAPSIS":"350.570","ELEMENT_SET_NO":"999","PERIOD":"91.530","SITE":"AFETR","MEAN_MOTION_DDOT":"0.0000000000000","PERIAPSIS":"348.648","NORAD_CAT_ID":"53536","CLASSIFICATION_TYPE":"U","MEAN_MOTION_DOT":"0.00018087","GP_ID":"211972391","LAUNCH_DATE":"2022-08-19","TLE_LINE2":"2 53536  53.2159  60.0914 0001429  40.8627 109.0399 15.73253025  3032","RCS_SIZE":"LARGE","DECAY_DATE":null,"TIME_SYSTEM":"UTC","REV_AT_EPOCH":"303","MEAN_MOTION":"15.73253025","ECCENTRICITY":"0.00014290","SEMIMAJOR_AXIS":"6727.744","RA_OF_ASC_NODE":"60.0914","OBJECT_NAME":"STARLINK-4053","EPHEMERIS_TYPE":"0","ARG_OF_PERICENTER":"40.8627"},{"OBJECT_TYPE":"PAYLOAD","BSTAR":"-0.01232600000000","INCLINATION":"53.2174","OBJECT_ID":"2022-101L","MEAN_ELEMENT_THEORY":"SGP4","CENTER_NAME":"EARTH","EPOCH":"2022-09-07T22:00:00.999936","REF_FRAME":"TEME","MEAN_ANOMALY":"49.1766","TLE_LINE1":"1 53537U 22101L   22250.91667824 -.01115724  00000-0 -12326-1 0  9991","FILE":"3562382","ARG_OF_PERICENTER":"46.4366","EPHEMERIS_TYPE":"0","RA_OF_ASC_NODE":"60.2200","SEMIMAJOR_AXIS":"6751.574","OBJECT_NAME":"STARLINK-4120","ECCENTRICITY":"0.00013830","MEAN_MOTION":"15.64931039","TIME_SYSTEM":"UTC","REV_AT_EPOCH":"303","TLE_LINE2":"2 53537  53.2174  60.2200 0001383  46.4366  49.1766 15.64931039  3031","RCS_SIZE":"LARGE","DECAY_DATE":null,"LAUNCH_DATE":"2022-08-19","MEAN_MOTION_DOT":"-0.01115724","GP_ID":"211972406","CLASSIFICATION_TYPE":"U","MEAN_MOTION_DDOT":"0.0000000000000","PERIAPSIS":"372.505","NORAD_CAT_ID":"53537","COUNTRY_CODE":"US","APOAPSIS":"374.373","ELEMENT_SET_NO":"999","PERIOD":"92.017","SITE":"AFETR"},{"ARG_OF_PERICENTER":"48.7358","EPHEMERIS_TYPE":"0","OBJECT_NAME":"STARLINK-4118","RA_OF_ASC_NODE":"60.0889","SEMIMAJOR_AXIS":"6727.690","REV_AT_EPOCH":"303","TIME_SYSTEM":"UTC","MEAN_MOTION":"15.73272024","ECCENTRICITY":"0.00016550","LAUNCH_DATE":"2022-08-19","DECAY_DATE":null,"TLE_LINE2":"2 53538  53.2155  60.0889 0001655  48.7358 101.7904 15.73272024  3031","RCS_SIZE":"LARGE","CLASSIFICATION_TYPE":"U","MEAN_MOTION_DOT":"-0.00001152","GP_ID":"211972405","PERIAPSIS":"348.441","NORAD_CAT_ID":"53538","MEAN_MOTION_DDOT":"0.0000000000000","SITE":"AFETR","PERIOD":"91.529","APOAPSIS":"350.668","COUNTRY_CODE":"US","ELEMENT_SET_NO":"999","OBJECT_TYPE":"PAYLOAD","BSTAR":"-0.00000377270000","OBJECT_ID":"2022-101M","INCLINATION":"53.2155","CENTER_NAME":"EARTH","EPOCH":"2022-09-07T22:00:00.999936","MEAN_ELEMENT_THEORY":"SGP4","MEAN_ANOMALY":"101.7904","REF_FRAME":"TEME","FILE":"3562382","TLE_LINE1":"1 53538U 22101M   22250.91667824 -.00001152  00000-0 -37727-5 0  9996"},{"OBJECT_TYPE":"PAYLOAD","INCLINATION":"53.2174","OBJECT_ID":"2022-101N","BSTAR":"-0.01231800000000","REF_FRAME":"TEME","MEAN_ANOMALY":"50.7954","MEAN_ELEMENT_THEORY":"SGP4","CENTER_NAME":"EARTH","EPOCH":"2022-09-07T22:00:00.999936","TLE_LINE1":"1 53539U 22101N   22250.91667824 -.01115662  00000-0 -12318-1 0  9995","FILE":"3562382","EPHEMERIS_TYPE":"0","ARG_OF_PERICENTER":"46.1844","ECCENTRICITY":"0.00013900","MEAN_MOTION":"15.64945620","TIME_SYSTEM":"UTC","REV_AT_EPOCH":"303","RA_OF_ASC_NODE":"60.2283","SEMIMAJOR_AXIS":"6751.532","OBJECT_NAME":"STARLINK-4123","MEAN_MOTION_DOT":"-0.01115662","GP_ID":"211972397","CLASSIFICATION_TYPE":"U","RCS_SIZE":"MEDIUM","TLE_LINE2":"2 53539  53.2174  60.2283 0001390  46.1844  50.7954 15.64945620  3038","DECAY_DATE":null,"LAUNCH_DATE":"2022-08-19","ELEMENT_SET_NO":"999","COUNTRY_CODE":"US","APOAPSIS":"374.336","SITE":"AFETR","PERIOD":"92.016","MEAN_MOTION_DDOT":"0.0000000000000","NORAD_CAT_ID":"53539","PERIAPSIS":"372.459"}];
